NAYIF-1 (EO-88)         
1 42017U 17008BX  20091.73410641  .00001628  00000-0  65579-4 0  9991
2 42017  97.3668 160.4129 0004972 224.8580 135.2257 15.26270734173697
MAX VALIER SAT          
1 42778U 17036P   20092.05401958  .00000917  00000-0  42518-4 0  9991
2 42778  97.3145 147.7968 0010576 298.1222  61.8945 15.22478078153956
RADFXSAT (FOX-1B)       
1 43017U 17073E   20091.71614350  .00000662  00000-0  57557-4 0  9999
2 43017  97.7253   6.9423 0256054 303.8522  53.8558 14.78864255127676
FOX-1D (AO-92)          
1 43137U 18004AC  20091.74669614  .00001055  00000-0  46562-4 0  9994
2 43137  97.4520 163.4162 0008378 338.7953  21.2936 15.23970222123208
ES'HAIL 2               
1 43700U 18090A   20092.00744100  .00000141  00000-0  00000+0 0  9996
2 43700   0.0177 172.7432 0002197 222.1854 183.3679  1.00271893  5171
FOX-1CLIFF (AO-95)      
1 43770U 18099N   20091.73283773  .00000392  00000-0  41038-4 0  9994
2 43770  97.7116 164.4473 0016111  96.8340 263.4714 14.94936809 72305
ITASAT 1                
1 43786U 18099AE  20091.88139901  .00000671  00000-0  65977-4 0  9998
2 43786  97.7132 164.9571 0016840  90.6137 269.7014 14.95284916 72341
JY1SAT (JO-97)          
1 43803U 18099AX  20091.90482275  .00000023  00000-0  72973-5 0  9992
2 43803  97.7093 164.8184 0016737  90.5590 269.7549 14.95452664 72343
PSAT2 (NO-104)          
1 44354U 19036R   20090.49709512  .00014076  00000-0  20977-3 0  9993
2 44354  28.5302 178.6581 0370309 188.5037 170.9140 15.01892692 41923
BRICSAT2 (NO-103)       
1 44355U 19036S   20091.88440841  .00029742  00000-0  43276-3 0  9998
2 44355  28.5311 164.5835 0354074 211.4093 146.4896 15.05937124 42199
JAISAT-1                
1 44419U 19038F   20091.89780692  .00001085  00000-0  65491-4 0  9997
2 44419  97.5302  54.4502 0022842  41.3211 318.9743 15.12649910 40872
DUCHIFAT-3              
1 44854U 19089C   20091.69485556  .00000390  00000-0  37992-4 0  9998
2 44854  36.9665 197.8707 0006732 156.6413 203.4633 14.99008494 16629
HUSKYSAT-1              
1 45119U 19071J   20092.04016974  .00001691  00000-0  63268-4 0  9998
2 45119  51.6443  17.3153 0012826 132.7823 227.4239 15.33291386  9245
